1 27424U 02022A   10032.41911178 -.00000568  00000-0 -11608-3 0  5506
2 27424 098.2051 335.9354 0001470 100.8764 259.2647 14.57110019412142